#aV2010  6 30  0  0   .00000000      96 DD+AD WGS84 FIT  NGA
## 1590 259200.00000000   900.00000000 55377  .0000000000000
+   31     1  2  3  4  5  6  7  8  9 10 11 12 13 14 15 16 17
+         18 19 20 21 22 23 24 26 27 28 29 30 31 32  0  0  0
+          0  0  0  0  0  0  0  0  0  0  0  0  0  0  0  0  0
+          0  0  0  0  0  0  0  0  0  0  0  0  0  0  0  0  0
+          0  0  0  0  0  0  0  0  0  0  0  0  0  0  0  0  0
++         0  0  0  0  0  0  0  0  0  0  0  0  0  0  0  0  0
++         0  0  0  0  0  0  0  0  0  0  0  0  0  0  0  0  0
++         0  0  0  0  0  0  0  0  0  0  0  0  0  0  0  0  0
++         0  0  0  0  0  0  0  0  0  0  0  0  0  0  0  0  0
++         0  0  0  0  0  0  0  0  0  0  0  0  0  0  0  0  0
%c cc cc ccc ccc cccc cccc cccc cccc ccccc ccccc ccccc ccccc
%c cc cc ccc ccc cccc cccc cccc cccc ccccc ccccc ccccc ccccc
%f  0.0000000  0.000000000  0.00000000000  0.000000000000000
%f  0.0000000  0.000000000  0.00000000000  0.000000000000000
%i    0    0    0    0      0      0      0      0         0
%i    0    0    0    0      0      0      0      0         0
/*      NGA, ST. LOUIS,MO.                                  
/*   EPHEMERIS COMPUTED FROM  3 DAYS OF DATA                
/* CCCCCCCCCCCCCCCCCCCCCCCCCCCCCCCCCCCCCCCCCCCCCCCCCCCCCCCCC
/* CCCCCCCCCCCCCCCCCCCCCCCCCCCCCCCCCCCCCCCCCCCCCCCCCCCCCCCCC
*  2010  6 30 15 30   .00000000                                                 
P  1   3878.529912 -24979.924858  -8059.073832   -136.171362                    
V  1   6099.149999  -8444.269281  29695.490303      -.039782                    
P  2  12765.651300  22764.883367   6089.851599    269.012233                    
V  2  -7147.166890  -4081.621253  29707.873642       .031799                    
P  3 -12229.389736 -12542.405495 -20416.656340    575.355060                    
V  3  24018.378380  -7533.079415  -9595.504466       .050743                    
P  4    538.286208  20418.920608  16612.709873    115.006958                    
V  4 -15288.332165 -15500.146026  19702.275405       .080984                    
P  5   5586.008708  19199.215998 -17455.056346    -10.595919                    
V  5  -9823.734955  19960.756624  18909.249109      -.026792                    
P  6  -6784.900771 -14495.835376 -21033.412256    589.853822                    
V  6  26604.697653  -5708.670620  -4452.919041      -.135186                    
P  7 -15088.561252   4459.881466 -21437.653941     -1.508443                    
V  7 -16339.154251 -21657.546678   6826.150072      -.001791                    
P  8  -6435.013200  14856.170998 -20941.652205      5.973926                    
V  8 -15603.771593 -21578.721119 -11035.899286       .001491                    
P  9  20099.743885  14138.979601   9570.787894     15.541001                    
V  9   6664.703548  11254.311312 -28939.695261       .022815                    
P 10  -3203.743395  24519.162847  -9388.851298    -45.882923                    
V 10  -7377.082768   9667.581938  28663.145273      -.009159                    
P 11 -23238.162233  -7028.811574  10906.440577    -72.496566                    
V 11  -8689.247239 -12071.425853 -25297.597060      -.026358                    
P 12  15135.981328   2240.956436  21737.807245    -98.556831                    
V 12 -10093.707484  25566.336203   4551.603747       .040536                    
P 13 -25647.015975   5100.681488  -4920.314862    302.509233                    
V 13  -6150.304434  -1255.595777  31618.802547      -.006085                    
P 14  11145.215539 -14121.721826  19631.696653     62.745049                    
V 14  24587.856253  -1366.280121 -15178.967592       .041495                    
P 15  20699.897724   7414.747674 -14971.625402   -247.414618                    
V 15 -18420.297239   5138.983740 -22783.207428       .063579                    
P 16   -787.108842 -22341.830654 -14087.305057    -85.212928                    
V 16   9062.197147 -15730.286503  24650.188401      -.036324                    
P 17 -13160.004655  14330.383674  18089.640656    159.472889                    
V 17 -22874.224138   1065.519786 -17795.810278       .020170                    
P 18  16797.606091 -15720.045243 -12655.439513     77.919155                    
V 18  -3585.353166  16643.759526 -25270.329959       .023712                    
P 19 -21043.308270  -8513.188090 -14016.745820    -46.125216                    
V 19  17561.326027  -3165.387143 -24080.037933      -.028725                    
P 20 -16305.532778     61.070469  20824.334662     53.961957                    
V 20   8416.987451 -25508.620695   6672.104233      -.004811                    
P 21  13562.217703  -8017.665043 -21062.677165    -70.691906                    
V 21  16836.702872  21924.032254   1829.763393      -.026407                    
P 22  11830.950619 -23618.978739  -2041.309326    168.529607                    
V 22   2300.982748   4049.519194 -31086.102190      -.009676                    
P 23 -26289.566459    202.422362   4840.547327    364.931603                    
V 23   5755.018916  -3066.732247  30912.455457      -.015434                    
P 24  -1945.425236 -21722.415090 -15262.591790    300.508803                    
V 24  12954.188797  14655.687814 -22145.214196       .031511                    
P 26  19929.149488   8940.585490 -15928.607944    -74.036058                    
V 26 -18895.857754   2361.228914 -22716.970551      -.058803                    
P 27  20377.043142  15862.515042   7258.113611    165.830750                    
V 27   4021.251179   7450.546827 -30275.618787       .034989                    
P 28 -13044.304891  22485.225697  -4154.778613    -11.998297                    
V 28   -128.557166  -6520.818686 -31583.857815       .010790                    
P 29  25705.613715  -5437.630306  -3640.600740    131.234311                    
V 29   5027.431326   2287.581619  31330.057328       .028197                    
P 30  16651.718344 -10767.496824  17246.256317    256.489014                    
V 30  -5715.059792  22070.735547  18910.572416       .033556                    
P 31  -3118.788505 -21238.746035  15728.548754    -27.594389                    
V 31  13405.564456  14445.989331  22626.569163       .024439                    
P 32 -12621.671493  -9083.401159  21890.868558    -27.330236                    
V 32  12206.037691 -24059.847465  -2651.828361      -.085907                    
EOF
